{"type": "FeatureCollection", "features": [ {"type": "Feature", "properties": {"norad_id": 66560, "name": "STARLINK-35411", "group": "last-30-days", "lat": -0.2303519957846625, "lon": -91.04537947809962, "alt_km": 414.910260534406, "timestamp": "2025-12-18T07:01:53.339905+00:00", "meta": {"OBJECT_NAME": "STARLINK-35411", "OBJECT_ID": "2025-268D", "EPOCH": "2025-12-17T14:47:54.930336", "MEAN_MOTION": 15.50574913, "ECCENTRICITY": 0.00019908, "INCLINATION": 42.9986, "RA_OF_ASC_NODE": 92.665, "ARG_OF_PERICENTER": 282.7775, "MEAN_ANOMALY": 77.2863, "EPHEMERIS_TYPE": 0, "CLASSIFICATION_TYPE": "U", "NORAD_CAT_ID": 66560, "ELEMENT_SET_NO": 999, "REV_AT_EPOCH": 538, "BSTAR": 0.0014154874, "MEAN_MOTION_DOT": 0.00083579, "MEAN_MOTION_DDOT": 0}, "tle": {"line1": "1 66560U 25268D   25351.61660799  .00083579  00000+0  14155-2 0  9995", "line2": "2 66560  42.9986  92.6650 0001990 282.7775  77.2863 15.50574913  5387"}}, "geometry": {"type": "Point", "coordinates": [-91.04537947809962, -0.2303519957846625]}}, {"type": "Feature", "properties": {"norad_id": 66561, "name": "STARLINK-35305", "group": "last-30-days", "lat": -2.8657846463051904, "lon": -88.22234508121011, "alt_km": 415.4756171364015, "timestamp": "2025-12-18T07:01:53.339915+00:00", "meta": {"OBJECT_NAME": "STARLINK-35305", "OBJECT_ID": "2025-268E", "EPOCH": "2025-12-17T14:46:55.818912", "MEAN_MOTION": 15.50600188, "ECCENTRICITY": 0.00028709, "INCLINATION": 43.0004, "RA_OF_ASC_NODE": 92.6599, "ARG_OF_PERICENTER": 290.6978, "MEAN_ANOMALY": 69.3575, "EPHEMERIS_TYPE": 0, "CLASSIFICATION_TYPE": "U", "NORAD_CAT_ID": 66561, "ELEMENT_SET_NO": 999, "REV_AT_EPOCH": 538, "BSTAR": 0.0014107904, "MEAN_MOTION_DOT": 0.00083379, "MEAN_MOTION_DDOT": 0}, "tle": {"line1": "1 66561U 25268E   25351.61592383  .00083379  00000+0  14108-2 0  9995", "line2": "2 66561  43.0004  92.6599 0002870 290.6978  69.3575 15.50600188  5380"}}, "geometry": {"type": "Point", "coordinates": [-88.22234508121011, -2.8657846463051904]}}, {"type": "Feature", "properties": {"norad_id": 66562, "name": "STARLINK-35579", "group": "last-30-days", "lat": -1.347862805764603, "lon": -89.84972730623353, "alt_km": 414.86891974493847, "timestamp": "2025-12-18T07:01:53.339924+00:00", "meta": {"OBJECT_NAME": "STARLINK-35579", "OBJECT_ID": "2025-268F", "EPOCH": "2025-12-17T14:47:27.252960", "MEAN_MOTION": 15.50520553, "ECCENTRICITY": 0.00018619, "INCLINATION": 43.0012, "RA_OF_ASC_NODE": 92.6624, "ARG_OF_PERICENTER": 267.364, "MEAN_ANOMALY": 92.7007, "EPHEMERIS_TYPE": 0, "CLASSIFICATION_TYPE": "U", "NORAD_CAT_ID": 66562, "ELEMENT_SET_NO": 999, "REV_AT_EPOCH": 538, "BSTAR": 0.0012204954, "MEAN_MOTION_DOT": 0.00071769, "MEAN_MOTION_DDOT": 0}, "tle": {"line1": "1 66562U 25268F   25351.61628765  .00071769  00000+0  12205-2 0  9996", "line2": "2 66562  43.0012  92.6624 0001861 267.3640  92.7007 15.50520553  5382"}}, "geometry": {"type": "Point", "coordinates": [-89.84972730623353, -1.347862805764603]}}, {"type": "Feature", "properties": {"norad_id": 66563, "name": "STARLINK-35437", "group": "last-30-days", "lat": -4.144406679426333, "lon": -86.84537789693941, "alt_km": 415.409556501053, "timestamp": "2025-12-18T07:01:53.339934+00:00", "meta": {"OBJECT_NAME": "STARLINK-35437", "OBJECT_ID": "2025-268G", "EPOCH": "2025-12-17T14:46:26.224320", "MEAN_MOTION": 15.50594747, "ECCENTRICITY": 0.00023047, "INCLINATION": 42.9991, "RA_OF_ASC_NODE": 92.6583, "ARG_OF_PERICENTER": 285.6032, "MEAN_ANOMALY": 74.4573, "EPHEMERIS_TYPE": 0, "CLASSIFICATION_TYPE": "U", "NORAD_CAT_ID": 66563, "ELEMENT_SET_NO": 999, "REV_AT_EPOCH": 538, "BSTAR": 0.0010834473, "MEAN_MOTION_DOT": 0.00063777, "MEAN_MOTION_DDOT": 0}, "tle": {"line1": "1 66563U 25268G   25351.61558130  .00063777  00000+0  10834-2 0  9991", "line2": "2 66563  42.9991  92.6583 0002304 285.6032  74.4573 15.50594747  5383"}}, "geometry": {"type": "Point", "coordinates": [-86.84537789693941, -4.144406679426333]}}, {"type": "Feature", "properties": {"norad_id": 66564, "name": "STARLINK-35358", "group": "last-30-days", "lat": -5.508456049600199, "lon": -85.37205439158758, "alt_km": 415.55165282461894, "timestamp": "2025-12-18T07:01:53.339947+00:00", "meta": {"OBJECT_NAME": "STARLINK-35358", "OBJECT_ID": "2025-268H", "EPOCH": "2025-12-17T14:45:56.565792", "MEAN_MOTION": 15.50637847, "ECCENTRICITY": 0.000287, "INCLINATION": 43.0013, "RA_OF_ASC_NODE": 92.6537, "ARG_OF_PERICENTER": 287.7389, "MEAN_ANOMALY": 72.3158, "EPHEMERIS_TYPE": 0, "CLASSIFICATION_TYPE": "U", "NORAD_CAT_ID": 66564, "ELEMENT_SET_NO": 999, "REV_AT_EPOCH": 538, "BSTAR": 0.0010567485, "MEAN_MOTION_DOT": 0.00062284, "MEAN_MOTION_DDOT": 0}, "tle": {"line1": "1 66564U 25268H   25351.61523803  .00062284  00000+0  10567-2 0  9996", "line2": "2 66564  43.0013  92.6537 0002870 287.7389  72.3158 15.50637847  5381"}}, "geometry": {"type": "Point", "coordinates": [-85.37205439158758, -5.508456049600199]}}, {"type": "Feature", "properties": {"norad_id": 66565, "name": "STARLINK-35893", "group": "last-30-days", "lat": -6.848579820501798, "lon": -83.91271688452383, "alt_km": 415.38040647020716, "timestamp": "2025-12-18T07:01:53.339957+00:00", "meta": {"OBJECT_NAME": "STARLINK-35893", "OBJECT_ID": "2025-268J", "EPOCH": "2025-12-17T14:45:27.364320", "MEAN_MOTION": 15.50645762, "ECCENTRICITY": 0.00010231, "INCLINATION": 42.9963, "RA_OF_ASC_NODE": 92.6492, "ARG_OF_PERICENTER": 296.3294, "MEAN_ANOMALY": 63.7461, "EPHEMERIS_TYPE": 0, "CLASSIFICATION_TYPE": "U", "NORAD_CAT_ID": 66565, "ELEMENT_SET_NO": 999, "REV_AT_EPOCH": 538, "BSTAR": 0.0013537546, "MEAN_MOTION_DOT": 0.00080083, "MEAN_MOTION_DDOT": 0}, "tle": {"line1": "1 66565U 25268J   25351.61490005  .00080083  00000+0  13538-2 0  9992", "line2": "2 66565  42.9963  92.6492 0001023 296.3294  63.7461 15.50645762  5380"}}, "geometry": {"type": "Point", "coordinates": [-83.91271688452383, -6.848579820501798]}}, {"type": "Feature", "properties": {"norad_id": 66566, "name": "STARLINK-35871", "group": "last-30-days", "lat": -7.938207553963488, "lon": -82.71483355684418, "alt_km": 415.69074443949467, "timestamp": "2025-12-18T07:01:53.339967+00:00", "meta": {"OBJECT_NAME": "STARLINK-35871", "OBJECT_ID": "2025-268K", "EPOCH": "2025-12-17T22:00:01.999584", "MEAN_MOTION": 15.50551215, "ECCENTRICITY": 0.00015879, "INCLINATION": 43.0008, "RA_OF_ASC_NODE": 90.8808, "ARG_OF_PERICENTER": 272.0335, "MEAN_ANOMALY": 336.6236, "EPHEMERIS_TYPE": 0, "CLASSIFICATION_TYPE": "U", "NORAD_CAT_ID": 66566, "ELEMENT_SET_NO": 999, "REV_AT_EPOCH": 549, "BSTAR": 0.00027806158, "MEAN_MOTION_DOT": 0.00015988, "MEAN_MOTION_DDOT": 0}, "tle": {"line1": "1 66566U 25268K   25351.91668981  .00015988  00000+0  27806-3 0  9992", "line2": "2 66566  43.0008  90.8808 0001587 272.0335 336.6236 15.50551215  5499"}}, "geometry": {"type": "Point", "coordinates": [-82.71483355684418, -7.938207553963488]}}, {"type": "Feature", "properties": {"norad_id": 66567, "name": "STARLINK-35825", "group": "last-30-days", "lat": -9.391303934739849, "lon": -81.10353973519491, "alt_km": 415.3416778752471, "timestamp": "2025-12-18T07:01:53.339977+00:00", "meta": {"OBJECT_NAME": "STARLINK-35825", "OBJECT_ID": "2025-268L", "EPOCH": "2025-12-17T14:44:27.813120", "MEAN_MOTION": 15.5060313, "ECCENTRICITY": 0.00011304, "INCLINATION": 43.0001, "RA_OF_ASC_NODE": 92.6447, "ARG_OF_PERICENTER": 268.8732, "MEAN_ANOMALY": 91.1999, "EPHEMERIS_TYPE": 0, "CLASSIFICATION_TYPE": "U", "NORAD_CAT_ID": 66567, "ELEMENT_SET_NO": 999, "REV_AT_EPOCH": 538, "BSTAR": 0.001680238, "MEAN_MOTION_DOT": 0.00099578, "MEAN_MOTION_DDOT": 0}, "tle": {"line1": "1 66567U 25268L   25351.61421080  .00099578  00000+0  16802-2 0  9997", "line2": "2 66567  43.0001  92.6447 0001130 268.8732  91.1999 15.50603130  5381"}}, "geometry": {"type": "Point", "coordinates": [-81.10353973519491, -9.391303934739849]}}, {"type": "Feature", "properties": {"norad_id": 66568, "name": "STARLINK-35803", "group": "last-30-days", "lat": -10.667011563655864, "lon": -79.67014433619688, "alt_km": 415.95022507718113, "timestamp": "2025-12-18T07:01:53.339990+00:00", "meta": {"OBJECT_NAME": "STARLINK-35803", "OBJECT_ID": "2025-268M", "EPOCH": "2025-12-17T14:43:58.014624", "MEAN_MOTION": 15.50604105, "ECCENTRICITY": 0.00026746, "INCLINATION": 43.0019, "RA_OF_ASC_NODE": 92.6427, "ARG_OF_PERICENTER": 292.7707, "MEAN_ANOMALY": 67.2871, "EPHEMERIS_TYPE": 0, "CLASSIFICATION_TYPE": "U", "NORAD_CAT_ID": 66568, "ELEMENT_SET_NO": 999, "REV_AT_EPOCH": 538, "BSTAR": 0.001769921, "MEAN_MOTION_DOT": 0.00104995, "MEAN_MOTION_DDOT": 0}, "tle": {"line1": "1 66568U 25268M   25351.61386591  .00104995  00000+0  17699-2 0  9990", "line2": "2 66568  43.0019  92.6427 0002674 292.7707  67.2871 15.50604105  5387"}}, "geometry": {"type": "Point", "coordinates": [-79.67014433619688, -10.667011563655864]}}, {"type": "Feature", "properties": {"norad_id": 66569, "name": "STARLINK-35835", "group": "last-30-days", "lat": -12.042592871454909, "lon": -78.10525904429325, "alt_km": 414.2552204125941, "timestamp": "2025-12-18T07:01:53.340000+00:00", "meta": {"OBJECT_NAME": "STARLINK-35835", "OBJECT_ID": "2025-268N", "EPOCH": "2025-12-17T16:16:13.533024", "MEAN_MOTION": 15.50702959, "ECCENTRICITY": 0.00031715, "INCLINATION": 42.9993, "RA_OF_ASC_NODE": 92.2593, "ARG_OF_PERICENTER": 244.129, "MEAN_ANOMALY": 115.9244, "EPHEMERIS_TYPE": 0, "CLASSIFICATION_TYPE": "U", "NORAD_CAT_ID": 66569, "ELEMENT_SET_NO": 999, "REV_AT_EPOCH": 539, "BSTAR": 0.0011649778, "MEAN_MOTION_DOT": 0.00068919, "MEAN_MOTION_DDOT": 0}, "tle": {"line1": "1 66569U 25268N   25351.67793441  .00068919  00000+0  11650-2 0  9999", "line2": "2 66569  42.9993  92.2593 0003171 244.1290 115.9244 15.50702959  5390"}}, "geometry": {"type": "Point", "coordinates": [-78.10525904429325, -12.042592871454909]}}]}